#dP2019 11  6  0  0  0.00000000      96 __u+U ITR00 FIT  IAC
## 2078 259200.00000000   900.00000000 58793 0.0000000000000
+  115   C01C02C03C04C05C06C07C08C09C10C11C12C13C14C16C19C20
+        C21C22C23C24C25C26C27C28C29C30C32C33C34C35C36C37E01
+        E02E03E04E05E07E08E09E12E13E14E15E18E19E21E24E25E26
+        E27E30E31E33E36G01G02G03G04G05G06G07G08G09G10G11G12
+        G13G14G15G16G17G18G19G20G21G22G23G24G25G26G27G28G29
+        G30G31G32J01J02J03J07R01R02R03R05R06R07R08R09R11R12
+        R13R14R15R16R17R18R19R20R21R22R23R24R26  0  0  0  0
++        13 13 13 13 13  8  8  8  8  8  7  8  8  8  8  8  8
++         8  8  7  8  8  8  7  7  8  7  8  9  8  8  8  8  4
++         4  4  4  4  4  4  4  4  4  5  4  4  4  4  4  4  4
++         4  4  4  4  5  4  3  3  4  3  3  4  3  3  3  3  3
++         4  3  3  3  3  4  3  3  3  3  3  4  3  3  3  3  6
++         4  3  3  8  8  8 14  6  5  5  5  8  5  5  5  5  5
++         6  5  5  6  5  5  6  6  5  5  5  6  8  0  0  0  0
%c M  cc GPS ccc cccc cccc cccc cccc ccccc ccccc ccccc ccccc
%c cc cc ccc ccc cccc cccc cccc cccc ccccc ccccc ccccc ccccc
%f  0.0000000  0.000000000  0.00000000000  0.000000000000000
%f  0.0000000  0.000000000  0.00000000000  0.000000000000000
%i    0    0    0    0      0      0      0      0         0
%i    0    0    0    0      0      0      0      0         0
/* INFORMATION & ANALYSIS CENTER (IAC)            RAPID DATA
/* S/V CLOCKS ARE ALIGNED TO GNSS TIME                      
/* G:C1WC2W R:C1PC2P E:C1XC5X C:C2IC6I J:C1CC2S             
/* PCV:IGS14_2076 OL/AL:FES2004  NONE     YN ORB:CoN CLK:CoN
*  2019 11 06 14 45  0.00000000
PC01 -32259.858828  27160.951773    627.220257    106.348792
PC02   4351.129871  41919.366321  -1026.490296    756.222518
PC03 -14772.547862  39466.764164   -456.739234    490.176189
PC04 -39595.801239  14536.912928    225.764488   -413.178043
PC05  21911.789738  35976.172984  -1202.203945    -46.474140
PC06 -13958.239126  37759.763319 -11488.446891    330.098568
PC07 -11299.392391  23818.484949  33127.286868   -245.010321
PC08 -26094.491105  25167.339577 -21729.642968    -28.453030
PC09  -4190.439657  41477.466714   5125.989181     95.869713
PC10   4658.889615  30535.744395  29048.105765   -340.514802
PC11 -17989.160188   4296.078947  20978.576692     13.470046
PC12  -1431.756601 -21821.314374  17352.814560    302.658287
PC13 -10547.805314  26774.988462 -30858.434606     92.146036
PC14 -19667.881290  -6228.986412 -18746.011871    108.203472
PC16 -11549.784408  39446.692677  -8907.958059   -910.614910
PC19  16317.276461  -3514.056873  22380.970885    237.942260
PC20  20063.523732  14711.198311  12675.012262   -258.683538
PC21 -11923.751564 -24747.063818   4868.726981    201.464373
PC22   3056.280685 -19993.950157  19209.888635   -325.586137
PC23 -12288.989263  14758.502044  20257.494709   -887.297927
PC24 -24918.526744  -6713.790599 -10645.671389   -880.066453
PC25 -26185.340501   6577.487617   7096.322723   -405.018669
PC26  -9876.045322 -14688.339538 -21581.102294    450.504984
PC27   1360.927610  22096.454344 -16993.347796    220.258288
PC28 -12691.800276  24840.056679  -1045.118774    211.427316
PC29  18749.992930 -13779.467526 -15404.640998    142.390321
PC30  14692.854290   6128.049060 -22917.474807    220.021553
PC32  12117.347466  24668.251759  -4850.680017   -875.577447
PC33 -16343.084568   3554.311399 -22338.892038   -541.486644
PC34 -14863.292252  -5874.777184  22874.191315   -212.589506
PC35  11901.545018 -25238.538935    959.172711   -524.234298
PC36  26399.028571  -5830.708626  -6897.365402   -916.562859
PC37   8870.973919  15061.288298  21776.433690   -712.126621
PE01  19716.643188  -7147.557808 -20879.825650   -726.208732
PE02 -19663.734937   7204.772768  20930.727919     90.041537
PE03 -12817.446557  16148.197997 -21251.494606   -230.061671
PE04    736.471518 -28726.411300   7096.281470   -400.354588
PE05 -17510.559933  -6042.171004 -23091.933131   -433.604679
PE07  11935.553316  24570.041918  11417.371610   -295.382831
PE08   -370.541936  28772.245463  -6978.179700   6266.982161
PE09 -12079.163122 -24435.075829 -11522.972295   6261.483688
PE12  10333.632465 -22418.117845  16342.677582   6113.167027
PE13   9166.555262  13484.408872 -24698.217909    395.077443
PE14  -2632.156430 -23086.398771   9286.322864   -784.418686
PE15  -9998.620148  22384.744502 -16584.374413    888.770377
PE18  12623.641834  20455.460927 -20788.396700   -879.186783
PE19  13616.606648 -14033.634823  22219.804848     -3.040234
PE21  28220.062104   7057.635055  -5476.641652   -564.411927
PE24 -20117.769240 -17329.338910 -13103.739223   5781.229633
PE25 -28222.869802  -7100.692400   5417.389481   -494.955894
PE26  23164.945715  -3239.956596 -18126.508177   3908.122573
PE27  20136.312104  17218.869682  13207.330962    351.359017
PE30    146.095275  17276.850711  24033.156388   4406.630735
PE31   -278.318003 -17228.680670 -24052.630425   -470.339290
PE33  23322.800694 -18179.625971  -1249.985687   -471.740325
PE36 -22998.047823   3344.687833  18342.324891    640.241599
PG01  -1796.265083  15990.875128 -21270.906738   -188.230075
PG02  20573.753306 -15242.629315   7424.267016   -341.301101
PG03   9283.983642  20401.390302 -14376.896340    -32.674154
PG04  11471.285279  13571.986164  19744.209790     -6.286975
PG05  10081.679277 -11632.427270  21510.372793     -3.137232
PG06  25299.724138  -5381.413116  -6051.480755   -115.067844
PG07  15521.785074   9285.016840  19884.320866   -143.031016
PG08  -5611.603468  25696.039699   2743.929226    -12.454441
PG09   8715.356773  19280.720240  15996.093864    -76.407918
PG10 -22810.785256  -9504.799076  -9966.765764   -123.984037
PG11  -2191.585914  21187.603100 -16558.674999   -456.061663
PG12  -3493.297933 -19611.269806 -17862.626073    186.329647
PG13  12939.237925 -21051.154684   9524.079216    -34.458770
PG14 -15763.578163   9695.143423 -18657.775907    -52.013843
PG15   2666.234779 -26149.694192   1502.043889   -274.576036
PG16 -12602.473917   8092.306804  21779.182578    -90.510212
PG17  14434.995038   1771.669758 -21800.831924    158.015479
PG18 -10189.137124  17860.590892 -17264.206373     98.309215
PG19  15892.037841  -5996.353759 -20719.573101   -243.470992
PG20 -22520.295122 -14271.161889    363.467377    527.398868
PG21 -18366.125881  -6369.479574  18801.208332    -90.381556
PG22   2383.131615  18580.370462 -18647.335356   -769.753245
PG23   2473.904544  25078.643840   8082.388628   -157.126820
PG24   3430.727853 -17452.409412 -19793.392142     -4.538029
PG25 -16665.182572 -19741.819323  -6938.754609    -16.803486
PG26 -19650.739870   1134.401375  17907.734607     78.262492
PG27 -12130.507559  19217.436085  13372.346086   -111.385429
PG28  21392.688005  11111.943544 -10408.281028    756.209142
PG29  -5756.657791 -20774.857424  15467.468368     51.388294
PG30  23490.663425   1666.864613  12503.964506    -77.922348
PG31 -25793.302010   6286.688826  -3751.249072     -1.375748
PG32 -15266.498254  -1060.737070 -21643.282361    116.246959
PJ01 -20408.742138  21814.160110 -25190.292869   -333.877673
PJ02 -28335.497288  22803.446350  26171.738743     -7.206228
PJ03 -30212.021053  26490.946982  17806.063601     -5.721463
PJ07 -25369.127483  33692.492330    -21.008175     -0.588893
PR01   9664.799174  -5605.547574  22924.022959     52.279595
PR02  -2293.968406 -22027.098650  12739.567004    396.457717
PR03 -11332.489866 -22442.700680  -4427.752220      4.378761
PR05  -8303.300517   7999.426057 -22748.888552     38.889775
PR06   3225.452643  22314.216254 -11922.420840    165.146105
PR07  11526.000862  22164.869021   5072.724260    -29.047372
PR08  13801.847876  10037.797974  18997.126674     14.604086
PR09     67.238795  11294.327957  22891.931821     99.658855
PR11  25201.801625   3992.658206    949.010144     20.858566
PR12  20221.572898  -4284.144752 -14897.949412     76.831489
PR13   3003.448805 -10601.752465 -23015.384086    -30.610117
PR14 -15466.544323 -10555.719629 -17296.546177     44.775125
PR15 -25058.848434  -4428.159886  -1756.843571    104.634197
PR16 -20047.693656   4878.319124  15065.438377      0.940390
PR17  -1940.647873 -13456.188828  21582.498905    274.033144
PR18 -13420.714691   1177.771331  21665.109533     13.545581
PR19 -18154.721287  14691.652646  10274.788836    -62.603367
PR20 -11866.180454  20629.304082  -9124.956073   -395.432878
PR21   2415.528973  12905.435190 -21874.540761    -83.521517
PR22  14915.991422  -4034.092330 -20325.812316   -183.589170
PR23  17192.952023 -18297.312092  -4486.089769    265.071123
PR24  10134.077598 -20621.714890  11061.002597   -186.469050
PR26 -13481.432681  20939.551073  -5584.969098      5.587299
EOF
